NORAD_CAT_ID,OBJECT_NAME,OBJECT_TYPE,EPOCH,MEAN_MOTION,ECCENTRICITY,INCLINATION,RA_OF_ASC_NODE,ARG_OF_PERICENTER,MEAN_ANOMALY,BSTAR,MEAN_MOTION_DOT,MEAN_MOTION_DDOT,TLE_LINE0,TLE_LINE1,TLE_LINE2,SEMIMAJOR_AXIS,PERIOD,APOGEE,PERIGEE,DECAYED
52278.0,STARLINK-3780,PAYLOAD,2023-04-20 04:36:34,15.0883635,0.0001443,53.2148,162.944,93.2978,266.8179,4.658e-05,4.53e-06,0.0,0 STARLINK-3780,1 52278U 22041T   23110.19206835  .00000453  00000-0  46580-4 0  9993,2 52278  53.2148 162.9440 0001443  93.2978 266.8179 15.08836350 56396,6917.892,95.438,540.755,538.758,0.0
52278.0,STARLINK-3780,PAYLOAD,2023-04-20 09:22:44,15.08838281,0.0001432,53.2153,162.0522,92.9284,267.1872,6.8499e-05,8.02e-06,0.0,0 STARLINK-3780,1 52278U 22041T   23110.39078802  .00000802  00000-0  68499-4 0  9997,2 52278  53.2153 162.0522 0001432  92.9284 267.1872 15.08838281 55206,6917.886,95.438,540.741,538.76,0.0
52278.0,STARLINK-3780,PAYLOAD,2023-04-20 20:30:26,15.08838798,0.0001447,53.2156,159.9707,89.812,270.3038,6.5228e-05,7.5e-06,0.0,0 STARLINK-3780,1 52278U 22041T   23110.85446959  .00000750  00000-0  65228-4 0  9999,2 52278  53.2156 159.9707 0001447  89.8120 270.3038 15.08838798 55279,6917.884,95.438,540.75,538.748,0.0
52278.0,STARLINK-3780,PAYLOAD,2023-04-21 12:24:17,15.08835146,0.0001376,53.2143,156.9961,87.9226,272.1924,2.8106e-05,1.59e-06,0.0,0 STARLINK-3780,1 52278U 22041T   23111.51687382  .00000159  00000-0  28106-4 0  9997,2 52278  53.2143 156.9961 0001376  87.9226 272.1924 15.08835146 56595,6917.895,95.438,540.712,538.808,0.0
52278.0,STARLINK-3780,PAYLOAD,2023-04-21 20:21:13,15.08839785,0.0001316,53.2131,155.5082,88.0475,272.0668,6.2679e-05,7.1e-06,0.0,0 STARLINK-3780,1 52278U 22041T   23111.84807193  .00000710  00000-0  62679-4 0  9993,2 52278  53.2131 155.5082 0001316  88.0475 272.0668 15.08839785 55421,6917.881,95.438,540.656,538.836,0.0
52278.0,STARLINK-3780,PAYLOAD,2023-04-22 02:42:46,15.08838509,0.0001144,53.2137,154.3177,94.0079,266.1044,0.00023775,3.498e-05,0.0,0 STARLINK-3780,1 52278U 22041T   23112.11303300  .00003498  00000-0  23775-3 0  9994,2 52278  53.2137 154.3177 0001144  94.0079 266.1044 15.08838509 55464,6917.885,95.438,540.541,538.959,0.0
52278.0,STARLINK-3780,PAYLOAD,2023-04-22 20:12:00,15.0883868,0.0001584,53.2124,151.0481,88.5364,271.581,9.4854e-05,1.222e-05,0.0,0 STARLINK-3780,1 52278U 22041T   23112.84167280  .00001222  00000-0  94854-4 0  9999,2 52278  53.2124 151.0481 0001584  88.5364 271.5810 15.08838680 56793,6917.884,95.438,540.845,538.654,0.0
52278.0,STARLINK-3780,PAYLOAD,2023-04-23 12:05:51,15.08840599,0.0001347,53.2143,148.0727,99.0929,261.0216,0.00011221,1.498e-05,0.0,0 STARLINK-3780,1 52278U 22041T   23113.50407174  .00001498  00000-0  11221-3 0  9993,2 52278  53.2143 148.0727 0001347  99.0929 261.0216 15.08840599 55676,6917.879,95.438,540.675,538.812,0.0
52278.0,STARLINK-3780,PAYLOAD,2023-04-23 13:41:14,15.08840193,0.0001113,53.2144,147.7769,91.7239,268.388,0.00016913,2.405e-05,0.0,0 STARLINK-3780,1 52278U 22041T   23113.57031161  .00002405  00000-0  16913-3 0  9991,2 52278  53.2144 147.7769 0001113  91.7239 268.3880 15.08840193 55681,6917.88,95.438,540.515,538.975,0.0
52278.0,STARLINK-3780,PAYLOAD,2023-04-24 11:56:37,15.08864015,0.0001278,53.2152,143.6118,110.316,249.797,0.00031086,4.666e-05,0.0,0 STARLINK-3780,1 52278U 22041T   23114.49765590  .00004666  00000-0  31086-3 0  9992,2 52278  53.2152 143.6118 0001278 110.3160 249.7970 15.08864015 57040,6917.807,95.436,540.556,538.788,0.0
52278.0,STARLINK-3780,PAYLOAD,2023-04-24 13:32:00,15.08866956,0.0001306,53.2155,143.3149,102.5238,257.59,0.00051167,7.871e-05,0.0,0 STARLINK-3780,1 52278U 22041T   23114.56389673  .00007871  00000-0  51167-3 0  9997,2 52278  53.2155 143.3149 0001306 102.5238 257.5900 15.08866956 55836,6917.798,95.436,540.566,538.76,0.0
52278.0,STARLINK-3780,PAYLOAD,2023-04-25 11:47:25,15.08832415,0.0001211,53.2145,139.1521,104.4667,255.6459,-0.00014216,-2.549e-05,0.0,0 STARLINK-3780,1 52278U 22041T   23115.49126916 -.00002549  00000-0 -14216-3 0  9992,2 52278  53.2145 139.1521 0001211 104.4667 255.6459 15.08832415 57196,6917.904,95.438,540.606,538.931,0.0
52278.0,STARLINK-3780,PAYLOAD,2023-04-26 11:38:13,15.08832271,0.000123,53.2153,134.6917,97.5519,262.5613,5.708e-05,6.21e-06,0.0,0 STARLINK-3780,1 52278U 22041T   23116.48487614  .00000621  00000-0  57080-4 0  9991,2 52278  53.2153 134.6917 0001230  97.5519 262.5613 15.08832271 56124,6917.904,95.438,540.62,538.918,0.0
52278.0,STARLINK-3780,PAYLOAD,2023-04-26 17:59:45,15.08834294,0.0001242,53.2152,133.5026,97.551,262.5623,0.00018853,2.713e-05,0.0,0 STARLINK-3780,1 52278U 22041T   23116.74983758  .00002713  00000-0  18853-3 0  9998,2 52278  53.2152 133.5026 0001242  97.5510 262.5623 15.08834294 56168,6917.898,95.438,540.622,538.904,0.0
52278.0,STARLINK-3780,PAYLOAD,2023-04-27 09:53:37,15.08844316,0.0001192,53.215,130.5288,97.092,263.0207,0.00033438,5.038e-05,0.0,0 STARLINK-3780,1 52278U 22041T   23117.41223637  .00005038  00000-0  33438-3 0  9995,2 52278  53.2150 130.5288 0001192  97.0920 263.0207 15.08844316 56268,6917.867,95.437,540.557,538.908,0.0
52278.0,STARLINK-3780,PAYLOAD,2023-04-28 06:33:38,15.08841638,0.0001231,53.2152,126.6621,93.9951,266.1182,0.00015732,2.217e-05,0.0,0 STARLINK-3780,1 52278U 22041T   23118.27335766  .00002217  00000-0  15732-3 0  9990,2 52278  53.2152 126.6621 0001231  93.9951 266.1182 15.08841638 57610,6917.875,95.437,540.592,538.889,0.0
52278.0,STARLINK-3780,PAYLOAD,2023-04-28 08:09:01,15.08841386,0.0001223,53.2152,126.3648,93.7993,266.3139,0.00014296,1.988e-05,0.0,0 STARLINK-3780,1 52278U 22041T   23118.33959765  .00001988  00000-0  14296-3 0  9996,2 52278  53.2152 126.3648 0001223  93.7993 266.3139 15.08841386 56401,6917.876,95.437,540.587,538.895,0.0
52278.0,STARLINK-3780,PAYLOAD,2023-04-29 09:35:11,15.08848344,0.0001181,53.2146,121.6078,93.1773,266.9354,0.00014948,2.092e-05,0.0,0 STARLINK-3780,1 52278U 22041T   23119.39943335  .00002092  00000-0  14948-3 0  9990,2 52278  53.2146 121.6078 0001181  93.1773 266.9354 15.08848344 57780,6917.855,95.437,540.537,538.903,0.0
52278.0,STARLINK-3780,PAYLOAD,2023-04-29 23:53:39,15.08838036,0.000124,53.2139,118.9321,88.926,271.1874,5.419e-05,5.75e-06,0.0,0 STARLINK-3780,1 52278U 22041T   23119.99559902  .00000575  00000-0  54190-4 0  9997,2 52278  53.2139 118.9321 0001240  88.9260 271.1874 15.08838036 57873,6917.886,95.438,540.609,538.894,0.0
52278.0,STARLINK-3780,PAYLOAD,2023-04-30 09:25:58,15.08838623,0.0001242,53.2137,117.1476,89.1582,270.9552,5.7528e-05,6.28e-06,0.0,0 STARLINK-3780,1 52278U 22041T   23120.39303933  .00000628  00000-0  57528-4 0  9991,2 52278  53.2137 117.1476 0001242  89.1582 270.9552 15.08838623 56719,6917.885,95.438,540.609,538.89,0.0
52278.0,STARLINK-3780,PAYLOAD,2023-05-01 04:30:35,15.08844527,0.0001232,53.2144,113.5784,91.6071,268.5062,6.1249e-05,6.87e-06,0.0,0 STARLINK-3780,1 52278U 22041T   23121.18791554  .00000687  00000-0  61249-4 0  9999,2 52278  53.2144 113.5784 0001232  91.6071 268.5062 15.08844527 58057,6917.867,95.437,540.584,538.879,0.0
52278.0,STARLINK-3780,PAYLOAD,2023-05-01 10:52:08,15.08845162,0.0001297,53.2152,112.3887,97.6575,262.4565,6.1853e-05,6.97e-06,0.0,0 STARLINK-3780,1 52278U 22041T   23121.45287374  .00000697  00000-0  61853-4 0  9991,2 52278  53.2152 112.3887 0001297  97.6575 262.4565 15.08845162 56878,6917.865,95.437,540.627,538.832,0.0
52278.0,STARLINK-3780,PAYLOAD,2023-05-02 04:21:23,15.08839283,0.0001283,53.2162,109.1177,91.8134,268.3005,7.395e-05,8.89e-06,0.0,0 STARLINK-3780,1 52278U 22041T   23122.18151829  .00000889  00000-0  73950-4 0  9991,2 52278  53.2162 109.1177 0001283  91.8134 268.3005 15.08839283 58207,6917.883,95.438,540.635,538.86,0.0
52278.0,STARLINK-3780,PAYLOAD,2023-05-02 09:07:32,15.08841654,0.0001305,53.2162,108.2252,95.0097,265.1044,8.8199e-05,1.116e-05,0.0,0 STARLINK-3780,1 52278U 22041T   23122.38023623  .00001116  00000-0  88199-4 0  9998,2 52278  53.2162 108.2252 0001305  95.0097 265.1044 15.08841654 57011,6917.875,95.437,540.643,538.838,0.0
52278.0,STARLINK-3780,PAYLOAD,2023-05-02 15:29:05,15.08837272,0.0001193,53.216,107.0365,80.3828,279.7299,4.4314e-05,4.17e-06,0.0,0 STARLINK-3780,1 52278U 22041T   23122.64520050  .00000417  00000-0  44314-4 0  9997,2 52278  53.2160 107.0365 0001193  80.3828 279.7299 15.08837272 57053,6917.889,95.438,540.579,538.928,0.0
52278.0,STARLINK-3780,PAYLOAD,2023-05-03 05:47:33,15.08841338,0.0001072,53.2156,104.3606,86.9898,273.1217,2.3601e-05,8.8e-07,0.0,0 STARLINK-3780,1 52278U 22041T   23123.24135856  .00000088  00000-0  23601-4 0  9990,2 52278  53.2156 104.3606 0001072  86.9898 273.1217 15.08841338 58362,6917.876,95.437,540.483,539.0,0.0
52278.0,STARLINK-3780,PAYLOAD,2023-05-03 08:58:19,15.0884278,0.0001197,53.2156,103.766,101.0218,259.0909,2.6852e-05,1.4e-06,0.0,0 STARLINK-3780,1 52278U 22041T   23123.37383704  .00000140  00000-0  26852-4 0  9991,2 52278  53.2156 103.7660 0001197 101.0218 259.0909 15.08842780 57168,6917.872,95.437,540.565,538.909,0.0
52278.0,STARLINK-3780,PAYLOAD,2023-05-03 21:41:25,15.08834159,0.0001159,53.2158,101.3873,92.3305,267.782,3.0501e-05,1.98e-06,0.0,0 STARLINK-3780,1 52278U 22041T   23123.90376322  .00000198  00000-0  30501-4 0  9997,2 52278  53.2158 101.3873 0001159  92.3305 267.7820 15.08834159 57245,6917.898,95.438,540.565,538.961,0.0
52278.0,STARLINK-3780,PAYLOAD,2023-05-04 07:13:43,15.08843252,0.0001105,53.2158,99.6031,99.3274,260.7843,-1.3781e-06,-3.1e-06,0.0,0 STARLINK-3780,1 52278U 22041T   23124.30119908 -.00000310  00000-0 -13781-5 0  9997,2 52278  53.2158  99.6031 0001105  99.3274 260.7843 15.08843252 58527,6917.87,95.437,540.5,538.971,0.0
52278.0,STARLINK-3780,PAYLOAD,2023-05-04 21:32:12,15.08836049,0.0001143,53.2155,96.9268,93.5395,266.5728,7.3042e-05,8.75e-06,0.0,0 STARLINK-3780,1 52278U 22041T   23124.89736311  .00000875  00000-0  73042-4 0  9993,2 52278  53.2155  96.9268 0001143  93.5395 266.5728 15.08836049 57394,6917.892,95.438,540.548,538.967,0.0
